OBJECT_NAME,OBJECT_ID,EPOCH,MEAN_MOTION,ECCENTRICITY,INCLINATION,RA_OF_ASC_NODE,ARG_OF_PERICENTER,MEAN_ANOMALY,EPHEMERIS_TYPE,CLASSIFICATION_TYPE,NORAD_CAT_ID,ELEMENT_SET_NO,REV_AT_EPOCH,BSTAR,MEAN_MOTION_DOT,MEAN_MOTION_DDOT
STARLINK-30254,2023-115N,2026-07-16T01:36:22.472064,15.27564680,.0002174,43.0010,98.1557,260.5048,99.5558,0,U,57533,999,16499,.45943E-6,-.25E-5,0
STARLINK-30264,2023-115P,2026-07-15T11:59:56.785920,15.27567267,.00015073,43.0020,207.0927,282.1237,77.9445,0,U,57534,999,16490,.58583375E-4,.135E-4,0
2023-117C,2023-117C,2026-07-16T04:23:16.701216,15.41863673,.0007891,97.4062,278.6112,130.5917,229.6018,0,U,57582,999,16303,.33279E-3,.14057E-3,0
2023-117F,2023-117F,2026-07-16T04:59:36.510144,15.46218088,.0007472,97.4196,283.9162,119.9063,240.2929,0,U,57585,999,16333,.25125E-3,.12271E-3,0
STARLINK-30166,2023-119A,2026-07-16T01:47:38.769792,15.27580923,.0001649,43.0003,76.3243,255.9854,104.0814,0,U,57602,999,16266,.38064E-4,.785E-5,0
STARLINK-30223,2023-119B,2026-07-16T02:48:25.980768,15.11825451,.0006961,42.9973,96.2208,191.4181,168.6508,0,U,57603,999,16248,.63054E-3,.10762E-3,0
STARLINK-30218,2023-119C,2026-07-16T00:44:56.790240,15.27574468,.0001388,43.0023,76.8583,265.8616,94.2077,0,U,57604,999,16271,.45105E-4,.979E-5,0
STARLINK-30138,2023-119D,2026-07-16T00:50:29.939136,15.27575123,.0001506,43.0014,76.8857,267.8780,92.1899,0,U,57605,999,16271,.75043E-4,.1803E-4,0
STARLINK-30255,2023-119E,2026-07-15T22:46:45.321888,15.27568180,.0001274,43.0040,77.0968,247.1351,112.9366,0,U,57606,999,16270,-.23373E-4,-.905E-5,0
STARLINK-30252,2023-119F,2026-07-16T01:15:08.574048,15.27572742,.0000941,43.0069,61.7174,324.0119,36.0670,0,U,57607,999,16289,.12417E-4,.8E-6,0
STARLINK-30258,2023-119G,2026-07-16T01:21:56.991168,15.27576834,.0001288,43.0046,77.0389,287.6037,72.4674,0,U,57608,999,16271,.11094E-3,.2792E-4,0
STARLINK-30174,2023-119H,2026-07-16T01:38:24.081792,15.27568340,.0001278,43.0055,76.2706,272.1013,87.9692,0,U,57609,999,16272,.3208E-4,.62E-5,0
STARLINK-30248,2023-119J,2026-07-15T22:20:50.305056,15.27577176,.0001769,43.0043,76.9636,251.5771,108.4888,0,U,57610,999,16270,.27042E-5,-.188E-5,0
STARLINK-30052,2023-119K,2026-07-16T00:09:47.541600,15.27582515,.000106,43.0023,76.6717,276.2772,83.7959,0,U,57611,999,16269,.52274E-4,.1177E-4,0
STARLINK-30245,2023-119L,2026-07-16T01:30:59.919264,15.27575434,.0001637,43.0042,76.2319,264.6978,95.3687,0,U,57612,999,16272,.28226E-5,-.185E-5,0
STARLINK-30041,2023-119M,2026-07-16T01:45:48.036096,15.27574230,.0001675,43.0025,76.3056,261.2173,98.8489,0,U,57613,999,16272,-.48497E-5,-.396E-5,0
STARLINK-30244,2023-119N,2026-07-15T00:50:24.467424,15.27584663,.00013604,43.0016,82.2700,265.1149,94.9548,0,U,57614,999,16256,-.13958702E-4,-.646E-5,0
STARLINK-30246,2023-119P,2026-07-16T00:27:52.743744,15.27711433,.0001306,43.0005,76.7447,250.4632,109.6079,0,U,57615,999,16271,.35201E-3,.9476E-4,0
STARLINK-30075,2023-119Q,2026-07-16T01:27:17.498880,15.27581661,.000229,43.0055,76.2234,273.6737,86.3853,0,U,57616,999,16272,.41322E-4,.875E-5,0
STARLINK-30148,2023-119R,2026-07-16T03:10:42.530016,15.27576862,.0001392,43.0027,75.9015,265.5731,94.4961,0,U,57617,999,16273,.16262E-3,.4215E-4,0
STARLINK-30249,2023-119S,2026-07-16T01:42:06.234336,15.27624189,.0003496,42.9956,76.3073,25.1494,334.9527,0,U,57618,999,16272,-.28482E-3,-.8104E-4,0
STARLINK-30141,2023-119U,2026-07-15T22:50:26.328768,15.27578573,.0001488,42.9995,77.1202,262.1670,97.9013,0,U,57620,999,16270,.6582E-4,.1549E-4,0
STARLINK-30150,2023-119V,2026-07-15T22:44:55.622400,15.27555369,.0001402,43.0014,77.0940,259.7872,100.2822,0,U,57621,999,16270,-.50304E-4,-.1645E-4,0
STARLINK-30056,2023-119W,2026-07-16T00:33:50.717088,15.27561739,.0000792,43.0065,76.7659,292.7680,67.3088,0,U,57622,999,16271,.90376E-4,.2224E-4,0
STARLINK-30100,2023-119X,2026-07-16T03:47:42.393120,15.27575599,.0001185,43.0023,76.0856,273.3022,86.7694,0,U,57623,999,16273,.46296E-4,.1012E-4,0
LUDI TANCE-4 01A,2023-120A,2026-07-16T00:03:34.436160,1.00275633,.0001454,15.0858,193.2533,16.5301,174.4684,0,U,57624,999,1083,0,-.188E-5,0
HEAD-3A,2023-121A,2026-07-16T05:03:12.312288,14.60713309,.0005703,45.0002,168.9860,59.4965,300.6454,0,U,57626,999,15582,.40849E-4,.41E-6,0
HEAD-3B,2023-121B,2026-07-16T04:56:39.043680,14.61618590,.0004839,45.0013,162.0032,45.9697,314.1558,0,U,57627,999,15591,.44511E-4,.62E-6,0
HEAD-3C,2023-121C,2026-07-16T05:11:40.226784,14.62293476,.0005348,44.9984,156.2089,48.3834,311.7481,0,U,57628,999,15598,.49823E-4,.92E-6,0
HEAD-3D,2023-121D,2026-07-16T03:53:27.459168,14.62963363,.0006705,45.0028,151.6520,48.0547,312.0881,0,U,57629,999,15604,.53941E-4,.115E-5,0
