STARLINK-30254          
1 57533U 23115N   26197.06692676 -.00000250  00000+0  45943-6 0  9990
2 57533  43.0010  98.1557 0002174 260.5048  99.5558 15.27564680164991
STARLINK-30264          
1 57534U 23115P   26196.49996280  .00001350  00000+0  58583-4 0  9998
2 57534  43.0020 207.0927 0001507 282.1237  77.9445 15.27567267164904
2023-117C               
1 57582U 23117C   26197.18283219  .00014057  00000+0  33279-3 0  9993
2 57582  97.4062 278.6112 0007891 130.5917 229.6018 15.41863673163030
2023-117F               
1 57585U 23117F   26197.20806146  .00012271  00000+0  25125-3 0  9996
2 57585  97.4196 283.9162 0007472 119.9063 240.2929 15.46218088163335
STARLINK-30166          
1 57602U 23119A   26197.07475428  .00000785  00000+0  38064-4 0  9992
2 57602  43.0003  76.3243 0001649 255.9854 104.0814 15.27580923162666
STARLINK-30223          
1 57603U 23119B   26197.11696737  .00010762  00000+0  63054-3 0  9998
2 57603  42.9973  96.2208 0006961 191.4181 168.6508 15.11825451162489
STARLINK-30218          
1 57604U 23119C   26197.03121285  .00000979  00000+0  45105-4 0  9998
2 57604  43.0023  76.8583 0001388 265.8616  94.2077 15.27574468162712
STARLINK-30138          
1 57605U 23119D   26197.03506874  .00001803  00000+0  75043-4 0  9991
2 57605  43.0014  76.8857 0001506 267.8780  92.1899 15.27575123162711
STARLINK-30255          
1 57606U 23119E   26196.94913567 -.00000905  00000+0 -23373-4 0  9995
2 57606  43.0040  77.0968 0001274 247.1351 112.9366 15.27568180162708
STARLINK-30252          
1 57607U 23119F   26197.05218257  .00000080  00000+0  12417-4 0  9992
2 57607  43.0069  61.7174 0000941 324.0119  36.0670 15.27572742162899
STARLINK-30258          
1 57608U 23119G   26197.05690962  .00002792  00000+0  11094-3 0  9991
2 57608  43.0046  77.0389 0001288 287.6037  72.4674 15.27576834162716
STARLINK-30174          
1 57609U 23119H   26197.06833428  .00000620  00000+0  32080-4 0  9996
2 57609  43.0055  76.2706 0001278 272.1013  87.9692 15.27568340162728
STARLINK-30248          
1 57610U 23119J   26196.93113779 -.00000188  00000+0  27042-5 0  9996
2 57610  43.0043  76.9636 0001769 251.5771 108.4888 15.27577176162704
STARLINK-30052          
1 57611U 23119K   26197.00680025  .00001177  00000+0  52274-4 0  9991
2 57611  43.0023  76.6717 0001060 276.2772  83.7959 15.27582515162694
STARLINK-30245          
1 57612U 23119L   26197.06319351 -.00000185  00000+0  28226-5 0  9999
2 57612  43.0042  76.2319 0001637 264.6978  95.3687 15.27575434162722
STARLINK-30041          
1 57613U 23119M   26197.07347264 -.00000396  00000+0 -48497-5 0  9992
2 57613  43.0025  76.3056 0001675 261.2173  98.8489 15.27574230162726
STARLINK-30244          
1 57614U 23119N   26196.03500541 -.00000646  00000+0 -13959-4 0  9999
2 57614  43.0016  82.2700 0001360 265.1149  94.9548 15.27584663162562
STARLINK-30246          
1 57615U 23119P   26197.01936046  .00009476  00000+0  35201-3 0  9993
2 57615  43.0005  76.7447 0001306 250.4632 109.6079 15.27711433162718
STARLINK-30075          
1 57616U 23119Q   26197.06061920  .00000875  00000+0  41322-4 0  9995
2 57616  43.0055  76.2234 0002290 273.6737  86.3853 15.27581661162729
STARLINK-30148          
1 57617U 23119R   26197.13243669  .00004215  00000+0  16262-3 0  9992
2 57617  43.0027  75.9015 0001392 265.5731  94.4961 15.27576862162736
STARLINK-30249          
1 57618U 23119S   26197.07090549 -.00008104  00000+0 -28482-3 0  9993
2 57618  42.9956  76.3073 0003496  25.1494 334.9527 15.27624189162723
STARLINK-30141          
1 57620U 23119U   26196.95169362  .00001549  00000+0  65820-4 0  9994
2 57620  42.9995  77.1202 0001488 262.1670  97.9013 15.27578573162709
STARLINK-30150          
1 57621U 23119V   26196.94786600 -.00001645  00000+0 -50304-4 0  9994
2 57621  43.0014  77.0940 0001402 259.7872 100.2822 15.27555369162708
STARLINK-30056          
1 57622U 23119W   26197.02350367  .00002224  00000+0  90376-4 0  9997
2 57622  43.0065  76.7659 0000792 292.7680  67.3088 15.27561739162719
STARLINK-30100          
1 57623U 23119X   26197.15812955  .00001012  00000+0  46296-4 0  9994
2 57623  43.0023  76.0856 0001185 273.3022  86.7694 15.27575599162737
LUDI TANCE-4 01A        
1 57624U 23120A   26197.00248190 -.00000188  00000+0  00000+0 0  9997
2 57624  15.0858 193.2533 0001454  16.5301 174.4684  1.00275633 10832
HEAD-3A                 
1 57626U 23121A   26197.21055917  .00000041  00000+0  40849-4 0  9993
2 57626  45.0002 168.9860 0005703  59.4965 300.6454 14.60713309155827
HEAD-3B                 
1 57627U 23121B   26197.20600745  .00000062  00000+0  44511-4 0  9991
2 57627  45.0013 162.0032 0004839  45.9697 314.1558 14.61618590155919
HEAD-3C                 
1 57628U 23121C   26197.21643781  .00000092  00000+0  49823-4 0  9994
2 57628  44.9984 156.2089 0005348  48.3834 311.7481 14.62293476155986
HEAD-3D                 
1 57629U 23121D   26197.16212337  .00000115  00000+0  53941-4 0  9990
2 57629  45.0028 151.6520 0006705  48.0547 312.0881 14.62963363156048
